      2.10          N: GNSS NAV DATA                        RINEX VERSION / TYPE
fic2rin                                 05/12/2024 00:59:02 PGM / RUN BY / DATE
                                                            END OF HEADER
5  24  5 11  1 59 44.0 -.172260683030D-03 -.136424205266D-11  .000000000000D+00
     .900000000000D+01 -.117187500000D+03  .410945688966D-08  .223490698926D+01
    -.616163015366D-05  .582804216538D-02  .829808413982D-05  .515361737442D+04
     .525584000000D+06  .931322574615D-08 -.288901342499D+01 -.100582838058D-06
     .971490072312D+00  .226343750000D+03  .124326362436D+01 -.767639118108D-08
     .632169189527D-10  .100000000000D+01  .231300000000D+04  .000000000000D+00
     .240000000000D+01  .000000000000D+00 -.107102096081D-07  .900000000000D+01
     .518400000000D+06  .400000000000D+01
11 24  5 11 14  0  0.0 -.659493729472D-03 -.943600753089D-11  .000000000000D+00
     .700000000000D+01 -.327187500000D+02  .443554190098D-08  .116442235941D+01
    -.165030360222D-05  .127228663769D-02  .134669244289D-05  .515370875168D+04
     .568800000000D+06  .204890966415D-07  .244227092225D+01  .409781932831D-07
     .966225076959D+00  .357062500000D+03 -.255645327145D+01 -.830606026646D-08
    -.201794119821D-09  .100000000000D+01  .231300000000D+04  .000000000000D+00
     .240000000000D+01  .000000000000D+00 -.884756445885D-08  .700000000000D+01
     .561600000000D+06  .400000000000D+01
6  24  5 11 14  0  0.0  .278569757938D-03 -.194404492504D-10  .000000000000D+00
     .550000000000D+02 -.213750000000D+02  .393587823084D-08 -.978613446150D-01
    -.113807618618D-05  .301774044055D-02  .135786831379D-05  .515361597061D+04
     .568800000000D+06  .186264514923D-07  .240885184610D+01 -.335276126862D-07
     .989690641365D+00  .369937500000D+03 -.694870748956D+00 -.805890711440D-08
    -.183936233111D-09  .100000000000D+01  .231300000000D+04  .000000000000D+00
     .240000000000D+01  .000000000000D+00  .372529029846D-08  .550000000000D+02
     .561600000000D+06  .400000000000D+01
3  24  5 11 14  0  0.0  .357847195119D-03  .197815097636D-10  .000000000000D+00
     .470000000000D+02 -.124281250000D+03  .367372445394D-08 -.139973567878D+01
    -.645406544209D-05  .545350764878D-02  .725500285625D-05  .515373614120D+04
     .568800000000D+06  .193715095520D-06 -.283823786597D+01  .931322574615D-07
     .984525133218D+00  .251875000000D+03  .107671348194D+01 -.764781856234D-08
    -.889322758148D-10  .100000000000D+01  .231300000000D+04  .000000000000D+00
     .240000000000D+01  .000000000000D+00  .139698386192D-08  .470000000000D+02
     .561600000000D+06  .400000000000D+01
7  24  5 11 14  0  0.0 -.126564875245D-03 -.818545231596D-11  .000000000000D+00
     .300000000000D+01 -.168750000000D+01  .514771442297D-08 -.969105605081D+00
     .344589352608D-06  .184982998762D-01  .591017305851D-05  .515363064003D+04
     .568800000000D+06  .135973095894D-06 -.746434787182D+00  .396743416786D-06
     .950128706366D+00  .258937500000D+03 -.212526760049D+01 -.827891627867D-08
     .396445084958D-10  .100000000000D+01  .231300000000D+04  .000000000000D+00
     .240000000000D+01  .000000000000D+00 -.111758708954D-07  .300000000000D+01
     .561600000000D+06  .400000000000D+01
8  24  5 11 14  0  0.0  .172425061464D-03  .206910044653D-10  .000000000000D+00
     .110000000000D+02  .139343750000D+03  .469340978507D-08  .187699415380D+01
     .729411840439D-05  .945264613256D-02  .652484595776D-05  .515363393402D+04
     .568800000000D+06 -.156462192535D-06  .131329204843D+01  .188127160072D-06
     .953300688732D+00  .251843750000D+03  .361656341878D+00 -.818248369043D-08
    -.389301930274D-10  .100000000000D+01  .231300000000D+04  .000000000000D+00
     .240000000000D+01  .000000000000D+00  .465661287308D-08  .110000000000D+02
     .561600000000D+06  .400000000000D+01
4  24  5 11 14  0  0.0  .358703546226D-03  .841282599140D-11  .000000000000D+00
     .880000000000D+02 -.275312500000D+02  .434018078595D-08  .155740157968D+01
    -.139139592648D-05  .281072454527D-02  .846572220325D-05  .515374885178D+04
     .568800000000D+06 -.186264514923D-07 -.175974270487D+01  .521540641785D-07
     .964466478266D+00  .218750000000D+03 -.294487018274D+01 -.774032241550D-08
     .525379027002D-09  .100000000000D+01  .231300000000D+04  .000000000000D+00
     .240000000000D+01  .000000000000D+00 -.465661287308D-08  .600000000000D+03
     .561600000000D+06  .400000000000D+01
22 24  5 11 14  0  0.0 -.121211633086D-04 -.534328137292D-11  .000000000000D+00
     .160000000000D+02  .510312500000D+02  .435625288399D-08  .241029870280D+01
     .263750553131D-05  .142979449593D-01  .101029872894D-04  .515370803642D+04
     .568800000000D+06  .180676579475D-06  .389967023669D+00  .428408384323D-07
     .961777577782D+00  .181906250000D+03 -.113567797215D+01 -.753709966474D-08
    -.501806616545D-09  .100000000000D+01  .231300000000D+04  .000000000000D+00
     .240000000000D+01  .000000000000D+00 -.111758708954D-07  .160000000000D+02
     .561600000000D+06  .400000000000D+01
21 24  5 11 14  0  0.0  .122244935483D-03 -.227373675443D-11  .000000000000D+00
     .900000000000D+01  .154062500000D+02  .458483383388D-08  .175020306874D+01
     .918284058571D-06  .251725920243D-01 -.244006514549D-06  .515369767761D+04
     .568800000000D+06  .227242708206D-06  .230378897856D+01  .242143869400D-06
     .961568222502D+00  .376093750000D+03 -.576832470999D+00 -.824570060938D-08
    -.425017703693D-09  .100000000000D+01  .231300000000D+04  .000000000000D+00
     .240000000000D+01  .000000000000D+00 -.102445483208D-07  .900000000000D+01
     .561600000000D+06  .400000000000D+01
15 24  5 11 14  0  0.0  .157880131155D-03  .409272615798D-11  .000000000000D+00
     .130000000000D+02 -.270937500000D+02  .506235372450D-08  .933750475347D+00
    -.145845115185D-05  .155779224588D-01  .939331948757D-05  .515364878082D+04
     .568800000000D+06 -.227242708206D-06 -.194669766523D+01 -.100582838058D-06
     .935004573574D+00  .189906250000D+03  .130699182349D+01 -.838749222986D-08
     .433946647048D-09  .100000000000D+01  .231300000000D+04  .000000000000D+00
     .240000000000D+01  .000000000000D+00 -.102445483208D-07  .130000000000D+02
     .561600000000D+06  .400000000000D+01
9  24  5 11 14  0  0.0  .192425679415D-03  .139834810398D-10  .000000000000D+00
     .800000000000D+01 -.328750000000D+02  .440339770490D-08  .234272586426D+01
    -.164285302162D-05  .268612185027D-02  .853091478348D-05  .515366815567D+04
     .568800000000D+06  .204890966415D-07 -.181916537079D+01  .726431608200D-07
     .958079214085D+00  .214281250000D+03  .198596819134D+01 -.771710716277D-08
     .544308386915D-09  .100000000000D+01  .231300000000D+04  .000000000000D+00
     .240000000000D+01  .000000000000D+00  .931322574615D-09  .800000000000D+01
     .561600000000D+06  .400000000000D+01
12 24  5 11 14  0  0.0 -.504413153976D-03 -.329691829393D-11  .000000000000D+00
     .640000000000D+02  .570000000000D+02  .438875423780D-08 -.169986698786D+01
     .314600765705D-05  .883342837915D-02  .967830419540D-05  .515366074753D+04
     .568800000000D+06  .137835741043D-06  .368796213043D+00  .210478901863D-06
     .962974111646D+00  .196562500000D+03  .144619226038D+01 -.768389149349D-08
    -.342871424828D-09  .100000000000D+01  .231300000000D+04  .000000000000D+00
     .240000000000D+01  .000000000000D+00 -.125728547573D-07  .640000000000D+02
     .561600000000D+06  .400000000000D+01
25 24  5 11 14  0  0.0  .495526473969D-03  .682121026330D-12  .000000000000D+00
     .100000000000D+02  .505625000000D+02  .468483799945D-08 -.173192456273D+01
     .267103314400D-05  .117425197968D-01  .948831439018D-05  .515357505226D+04
     .568800000000D+06  .255182385445D-06  .282452886211D+00  .260770320892D-07
     .950911417277D+00  .190843750000D+03  .109042498300D+01 -.773996525776D-08
    -.311798701953D-09  .100000000000D+01  .231300000000D+04  .000000000000D+00
     .240000000000D+01  .000000000000D+00  .512227416039D-08  .100000000000D+02
     .561600000000D+06  .400000000000D+01
24 24  5 11 14  0  0.0 -.468596816063D-03 -.363797880709D-11  .000000000000D+00
     .410000000000D+02 -.415625000000D+01  .562630578679D-08  .532396762976D-01
    -.234693288803D-06  .152474490460D-01  .583007931709D-05  .515370614433D+04
     .568800000000D+06 -.689178705215D-07 -.843211983689D+00  .191852450371D-06
     .933737341268D+00  .257656250000D+03  .976144989866D+00 -.867929009870D-08
     .750031241812D-11  .100000000000D+01  .231300000000D+04  .000000000000D+00
     .240000000000D+01  .000000000000D+00  .232830643654D-08  .410000000000D+02
     .561600000000D+06  .400000000000D+01
31 24  5 11 14  0  0.0 -.227852724493D-03  .113686837722D-12  .000000000000D+00
     .300000000000D+02 -.834375000000D+01  .496699260946D-08 -.184136124957D+01
    -.659376382828D-06  .104765561409D-01  .579096376896D-05  .515371093369D+04
     .568800000000D+06  .113621354103D-06 -.725005088332D+00 -.875443220139D-07
     .954126925845D+00  .257218750000D+03  .673357309749D+00 -.795354558281D-08
     .896465912832D-10  .100000000000D+01  .231300000000D+04  .000000000000D+00
     .240000000000D+01  .000000000000D+00 -.135041773319D-07  .300000000000D+02
     .561600000000D+06  .400000000000D+01
29 24  5 11 14  0  0.0 -.598822254688D-03  .136424205266D-11  .000000000000D+00
     .300000000000D+02  .118750000000D+03  .431339395589D-08  .191029809245D+01
     .633671879768D-05  .289851031266D-02  .438652932644D-05  .515360164833D+04
     .568800000000D+06  .726431608200D-07  .142278799955D+01 -.167638063431D-07
     .971414189289D+00  .297781250000D+03  .252488860050D+01 -.802747723379D-08
    -.357157734196D-12  .100000000000D+01  .231300000000D+04  .000000000000D+00
     .240000000000D+01  .000000000000D+00 -.977888703346D-08  .300000000000D+02
     .561600000000D+06  .400000000000D+01
